STARLINK-1338           
1 45532U 20025B   24036.91088444  .00002490  00000+0  18602-3 0  9995
2 45532  53.0557 290.8630 0001654 114.7529 245.3632 15.06399977210126
STARLINK-1341           
1 45534U 20025D   24036.92194306  .00001043  00000+0  88900-4 0  9995
2 45534  53.0562 290.8144 0001418  83.9434 276.1716 15.06398060210121
STARLINK-1350           
1 45535U 20025E   24036.94037261 -.00002284  00000+0 -13449-3 0  9999
2 45535  53.0553 290.7307 0001729 101.3801 258.7382 15.06388866210139
STARLINK-1352           
1 45536U 20025F   24036.94405385 -.00000374  00000+0 -62221-5 0  9998
2 45536  53.0551 290.7181 0001693 108.9094 251.2078 15.06388515210125
STARLINK-1362           
1 45538U 20025H   24036.94307588 -.00001372  00000+0 -73241-4 0  9998
2 45538  53.0565 290.4433 0001459  94.4133 265.7022 15.06394007210135
STARLINK-1368           
1 45540U 20025K   24036.94774219  .00000497  00000+0  52299-4 0  9995
2 45540  53.0562 290.7023 0001480  87.7970 272.3188 15.06390736210122
STARLINK-1369           
1 45541U 20025L   24036.95143546  .00001216  00000+0  10052-3 0  9990
2 45541  53.0551 290.6800 0001641  86.9860 273.1317 15.06391716210123
STARLINK-1371           
1 45542U 20025M   24036.91824866  .00001513  00000+0  12046-3 0  9993
2 45542  53.0546 290.8308 0001678 121.1406 238.9748 15.06398344210122
STARLINK-1372           
1 45543U 20025N   24036.95511552 -.00000504  00000+0 -14948-4 0  9998
2 45543  53.0561 290.6677 0001601  84.0638 276.0533 15.06390573209227
STARLINK-1373           
1 45544U 20025P   24036.90719570  .00001550  00000+0  12292-3 0  9993
2 45544  53.0547 290.8725 0001683 116.9336 243.1825 15.06400773210122
STARLINK-1374           
1 45545U 20025Q   24036.92562051  .00000398  00000+0  45600-4 0  9995
2 45545  53.0551 290.7937 0001471 111.9611 248.1534 15.06402638210100
STARLINK-1375           
1 45546U 20025R   24036.93668227 -.00004259  00000+0 -26713-3 0  9994
2 45546  53.0557 290.7637 0002710 122.2427 237.8825 15.06399231210125
STARLINK-1377           
1 45547U 20025S   24036.93299363 -.00000783  00000+0 -33653-4 0  9996
2 45547  53.0547 290.7682 0001661 102.6504 257.4671 15.06397588210138
STARLINK-1378           
1 45548U 20025T   24036.90987435  .00001639  00000+0  12892-3 0  9998
2 45548  53.0541 290.3584 0001450 111.6347 248.4797 15.06401657210122
STARLINK-1390           
1 45550U 20025V   24036.95045287 -.00003880  00000+0 -24183-3 0  9994
2 45550  53.0548 290.4254 0001228  92.2296 267.8834 15.06382791210121
STARLINK-1294           
1 45551U 20025W   24036.91273172  .00000614  00000+0  60145-4 0  9996
2 45551  53.0537 270.8532 0001424  89.9754 270.1398 15.06395191210402
STARLINK-1323           
1 45553U 20025Y   24036.92378212  .00000783  00000+0  71475-4 0  9995
2 45553  53.0541 270.8069 0001441  86.8128 273.3026 15.06399779209119
STARLINK-1325           
1 45554U 20025Z   24036.91546772  .00000189  00000+0  31613-4 0  9993
2 45554  53.0539 270.8338 0001408  87.9773 272.1377 15.06395308210401
STARLINK-1327           
1 45555U 20025AA  24036.94590194 -.00000896  00000+0 -41260-4 0  9990
2 45555  53.0542 270.7178 0001596 118.4419 241.6731 15.06392621210402
STARLINK-1334           
1 45556U 20025AB  24036.92009635 -.00000951  00000+0 -44952-4 0  9997
2 45556  53.0550 270.8254 0001286 109.0834 251.0295 15.06406202210402
STARLINK-1336           
1 45557U 20025AC  24036.92746102  .00001626  00000+0  12807-3 0  9996
2 45557  53.0540 270.7896 0001483  92.9508 267.1651 15.06390920210403
STARLINK-1342           
1 45558U 20025AD  24036.89430334  .00000185  00000+0  31356-4 0  9990
2 45558  53.0547 270.9455 0001427  88.0275 272.0877 15.06389068210393
STARLINK-1344           
1 45559U 20025AE  24036.92654870  .00019926  00000+0  13560-2 0  9996
2 45559  53.0551 270.7415 0001981  98.7109 261.4104 15.06313010210403
STARLINK-1346           
1 45560U 20025AF  24036.89157078  .00000835  00000+0  74925-4 0  9995
2 45560  53.0530 261.3741 0001355 108.2308 251.8829 15.06400501210536
STARLINK-1354           
1 45562U 20025AH  24036.87216360 -.00000426  00000+0 -96789-5 0  9996
2 45562  53.0545 271.0271 0001855 144.4044 215.7069 15.06404140210396
STARLINK-1355           
1 45563U 20025AJ  24036.95327576  .00000239  00000+0  34955-4 0  9994
2 45563  53.0548 270.6846 0001496 112.1565 247.9583 15.06392715210408
STARLINK-1356           
1 45564U 20025AK  24036.94958537 -.00000371  00000+0 -60029-5 0  9992
2 45564  53.0553 270.6956 0001692 111.9885 248.1284 15.06402262210407
STARLINK-1357           
1 45565U 20025AL  24036.87587043 -.00000228  00000+0  35581-5 0  9990
2 45565  53.0541 271.0224 0001469  95.9366 264.1790 15.06387689210398
STARLINK-1358           
1 45566U 20025AM  24036.89061097  .00000421  00000+0  47187-4 0  9997
2 45566  53.0548 270.9606 0001507  96.0786 264.0375 15.06389740210397
STARLINK-1361           
1 45567U 20025AN  24036.90167083  .00001386  00000+0  11191-3 0  9998
2 45567  53.0536 270.9089 0001393  97.8922 262.2225 15.06393226210404
STARLINK-1363           
1 45568U 20025AP  24036.91644966  .00006227  00000+0  43687-3 0  9994
2 45568  53.0534 271.0785 0001430 107.7421 252.3724 15.06371151210390
STARLINK-1366           
1 45569U 20025AQ  24036.90536005  .00002357  00000+0  17707-3 0  9992
2 45569  53.0534 270.8877 0001637  91.8369 268.2807 15.06395148210393
STARLINK-1376           
1 45570U 20025AR  24036.89798249 -.00000053  00000+0  15351-4 0  9998
2 45570  53.0546 270.9217 0001467  84.4823 275.6333 15.06388924210391
STARLINK-1320           
1 45572U 20025AT  24036.89383533  .00001618  00000+0  12753-3 0  9995
2 45572  53.0536 255.9496 0001322  89.7445 270.3695 15.06396696210615
STARLINK-1321           
1 45573U 20025AU  24036.88416377  .00000972  00000+0  84160-4 0  9992
2 45573  53.0540 260.9843 0001393  94.2800 265.8348 15.06396591210233
STARLINK-1324           
1 45574U 20025AV  24036.90996361  .00000516  00000+0  53552-4 0  9997
2 45574  53.0536 260.8690 0001744  97.8498 262.2689 15.06395026210556
STARLINK-1328           
1 45576U 20025AX  24036.93576582 -.00000191  00000+0  61006-5 0  9995
2 45576  53.0543 260.7586 0001401  87.2492 272.8657 15.06390913210558
STARLINK-1331           
1 45578U 20025AZ  24036.92838959  .00000748  00000+0  69141-4 0  9999
2 45578  53.0549 260.7910 0001419  95.3686 264.7465 15.06397139210555
STARLINK-1332           
1 45579U 20025BA  24036.80308404  .00000314  00000+0  40007-4 0  9993
2 45579  53.0535 221.5160 0001257  88.2056 271.9076 15.06392357211089
STARLINK-1333           
1 45580U 20025BB  24036.93484334  .00000767  00000+0  70387-4 0  9992
2 45580  53.0551 270.7553 0001459  93.3606 266.7549 15.06398243210405
STARLINK-1335           
1 45581U 20025BC  24036.93945092  .00000428  00000+0  47632-4 0  9997
2 45581  53.0546 260.7378 0001400  84.1964 275.9185 15.06390105210547
STARLINK-1337           
1 45582U 20025BD  24036.89521404  .00001270  00000+0  10417-3 0  9996
2 45582  53.0544 260.9356 0001465  94.3335 265.7822 15.06399623210538
STARLINK-1340           
1 45583U 20025BE  24036.94313715  .00001997  00000+0  15295-3 0  9992
2 45583  53.0536 260.7208 0001465  91.7542 268.3615 15.06395902210541
STARLINK-1347           
1 45586U 20025BH  24036.88784782  .00000928  00000+0  81214-4 0  9992
2 45586  53.0537 260.9694 0001347 102.0626 258.0514 15.06397338210521
STARLINK-1349           
1 45587U 20025BJ  24036.92470460  .00002390  00000+0  17930-3 0  9991
2 45587  53.0532 260.8026 0001255  91.6134 268.4999 15.06398882210549
STARLINK-1360           
1 45588U 20025BK  24036.90259027  .00000699  00000+0  65801-4 0  9995
2 45588  53.0517 260.8911 0001066  90.1039 270.0072 15.06398993210537
STARLINK-1364           
1 45589U 20025BL  24036.89890317  .00000036  00000+0  21339-4 0  9990
2 45589  53.0529 260.9126 0001386  74.6278 285.4864 15.06395735210537
STARLINK-1365           
1 45590U 20025BM  24036.91456534  .00002010  00000+0  15375-3 0  9990
2 45590  53.0536 290.8500 0001426 114.9058 245.2080 15.06403233210137
STARLINK-1441           
1 45658U 20035B   24036.82242135 -.00000795  00000+0 -34474-4 0  9998
2 45658  53.0543 251.2677 0001595  96.9553 263.1617 15.06396669203751
STARLINK-1442           
1 45659U 20035C   24036.91322055  .00001553  00000+0  12836-3 0  9997
2 45659  53.0535 251.0801 0001376  86.5407 273.5739 15.04765872203754
STARLINK-1443           
1 45660U 20035D   24036.91667824  .00000680  00000+0  64560-4 0  9997
2 45660  53.0518 250.8375 0001428  85.0133   6.5729 15.06386098  5819
STARLINK-1444           
1 45661U 20035E   24036.89344439  .00016120  00000+0  98348-3 0  9995
2 45661  53.0532 249.9911 0003477 160.3438 199.7687 15.10477991203773
STARLINK-1445           
1 45662U 20035F   24036.86664494  .00000374  00000+0  44015-4 0  9996
2 45662  53.0529 251.0666 0001489  90.0723 270.0437 15.06401702203754
STARLINK-1446           
1 45663U 20035G   24036.73763734 -.00000143  00000+0  93083-5 0  9995
2 45663  53.0541 251.6425 0001464  96.7976 263.3180 15.06398904203731
STARLINK-1448           
1 45665U 20035J   24036.90351351 -.00000213  00000+0  45873-5 0  9996
2 45665  53.0535 250.8944 0001451  83.0225 277.0929 15.06391658203759
STARLINK-1449           
1 45666U 20035K   24036.91065759  .00017477  00000+0  10458-2 0  9999
2 45666  53.0526 249.4887 0002765 147.9515 212.1645 15.11125874203779
STARLINK-1450           
1 45667U 20035L   24036.90994147  .00000650  00000+0  62571-4 0  9991
2 45667  53.0547 250.8974 0001568  86.0203 274.0965 15.06393305203753
STARLINK-1451           
1 45668U 20035M   24036.91667824  .00000784  00000+0  71500-4 0  9992
2 45668  53.0518 251.1583 0001230  82.1794 329.1066 15.06403092  5816
STARLINK-1452           
1 45669U 20035N   24036.85928016  .00000700  00000+0  65924-4 0  9990
2 45669  53.0539 251.0996 0001463  86.7691 273.3466 15.06395893203757
